PANDORA
1 67395U 80229J   26112.70833333  .00000000  00000-0  37770-3 0    03
2 67395  97.8066 112.2328 0003942 330.1511 109.7237 14.87951870    08
